CCSDS_OMM_VERS = 2.0
CREATION_DATE  = 
ORIGINATOR     = 

OBJECT_NAME    = CZ-6A R/B
OBJECT_ID      = 2026-051B
CENTER_NAME    = EARTH
REF_FRAME      = TEME
TIME_SYSTEM    = UTC
MEAN_ELEMENT_THEORY = SGP/SGP4

EPOCH          = 2026-03-20T18:06:53.477568
MEAN_MOTION    = 14.56361365
ECCENTRICITY   = .0185759
INCLINATION    = 142.0315
RA_OF_ASC_NODE = 262.4470
ARG_OF_PERICENTER = 129.7347
MEAN_ANOMALY   = 231.9910

EPHEMERIS_TYPE = 0
CLASSIFICATION_TYPE = U
NORAD_CAT_ID   = 68197
ELEMENT_SET_NO = 999
REV_AT_EPOCH   = 77
BSTAR          = .2287E-3
MEAN_MOTION_DOT = .1607E-4
MEAN_MOTION_DDOT = 0

CCSDS_OMM_VERS = 2.0
CREATION_DATE  = 
ORIGINATOR     = 

OBJECT_NAME    = 2026-052A
OBJECT_ID      = 2026-052A
CENTER_NAME    = EARTH
REF_FRAME      = TEME
TIME_SYSTEM    = UTC
MEAN_ELEMENT_THEORY = SGP/SGP4

EPOCH          = 2026-03-20T20:34:04.012032
MEAN_MOTION    = 15.09848696
ECCENTRICITY   = .0012358
INCLINATION    = 97.5379
RA_OF_ASC_NODE = 156.0337
ARG_OF_PERICENTER = 247.6434
MEAN_ANOMALY   = 112.3486

EPHEMERIS_TYPE = 0
CLASSIFICATION_TYPE = U
NORAD_CAT_ID   = 68198
ELEMENT_SET_NO = 999
REV_AT_EPOCH   = 71
BSTAR          = .39776E-3
MEAN_MOTION_DOT = .6384E-4
MEAN_MOTION_DDOT = 0

CCSDS_OMM_VERS = 2.0
CREATION_DATE  = 
ORIGINATOR     = 

OBJECT_NAME    = YUXING-3 06
OBJECT_ID      = 2026-052B
CENTER_NAME    = EARTH
REF_FRAME      = TEME
TIME_SYSTEM    = UTC
MEAN_ELEMENT_THEORY = SGP/SGP4

EPOCH          = 2026-03-20T20:33:20.749824
MEAN_MOTION    = 15.09996506
ECCENTRICITY   = .0011593
INCLINATION    = 97.5384
RA_OF_ASC_NODE = 156.0335
ARG_OF_PERICENTER = 249.5420
MEAN_ANOMALY   = 110.4565

EPHEMERIS_TYPE = 0
CLASSIFICATION_TYPE = U
NORAD_CAT_ID   = 68199
ELEMENT_SET_NO = 999
REV_AT_EPOCH   = 71
BSTAR          = .1493E-3
MEAN_MOTION_DOT = .2365E-4
MEAN_MOTION_DDOT = 0

CCSDS_OMM_VERS = 2.0
CREATION_DATE  = 
ORIGINATOR     = 

OBJECT_NAME    = 2026-052C
OBJECT_ID      = 2026-052C
CENTER_NAME    = EARTH
REF_FRAME      = TEME
TIME_SYSTEM    = UTC
MEAN_ELEMENT_THEORY = SGP/SGP4

EPOCH          = 2026-03-19T19:06:04.641984
MEAN_MOTION    = 15.10119523
ECCENTRICITY   = .00112569
INCLINATION    = 97.5376
RA_OF_ASC_NODE = 154.9921
ARG_OF_PERICENTER = 255.3905
MEAN_ANOMALY   = 104.6076

EPHEMERIS_TYPE = 0
CLASSIFICATION_TYPE = U
NORAD_CAT_ID   = 68200
ELEMENT_SET_NO = 999
REV_AT_EPOCH   = 54
BSTAR          = -.12504287E-4
MEAN_MOTION_DOT = -.268E-5
MEAN_MOTION_DDOT = 0

CCSDS_OMM_VERS = 2.0
CREATION_DATE  = 
ORIGINATOR     = 

OBJECT_NAME    = 2026-052D
OBJECT_ID      = 2026-052D
CENTER_NAME    = EARTH
REF_FRAME      = TEME
TIME_SYSTEM    = UTC
MEAN_ELEMENT_THEORY = SGP/SGP4

EPOCH          = 2026-03-20T20:32:05.956800
MEAN_MOTION    = 15.10292784
ECCENTRICITY   = .00104
INCLINATION    = 97.5382
RA_OF_ASC_NODE = 156.0330
ARG_OF_PERICENTER = 248.2959
MEAN_ANOMALY   = 111.7164

EPHEMERIS_TYPE = 0
CLASSIFICATION_TYPE = U
NORAD_CAT_ID   = 68201
ELEMENT_SET_NO = 999
REV_AT_EPOCH   = 71
BSTAR          = .38866E-3
MEAN_MOTION_DOT = .6311E-4
MEAN_MOTION_DDOT = 0

CCSDS_OMM_VERS = 2.0
CREATION_DATE  = 
ORIGINATOR     = 

OBJECT_NAME    = 2026-052E
OBJECT_ID      = 2026-052E
CENTER_NAME    = EARTH
REF_FRAME      = TEME
TIME_SYSTEM    = UTC
MEAN_ELEMENT_THEORY = SGP/SGP4

EPOCH          = 2026-03-20T20:32:04.791264
MEAN_MOTION    = 15.10294873
ECCENTRICITY   = .0010266
INCLINATION    = 97.5381
RA_OF_ASC_NODE = 156.0340
ARG_OF_PERICENTER = 252.6461
MEAN_ANOMALY   = 107.3646

EPHEMERIS_TYPE = 0
CLASSIFICATION_TYPE = U
NORAD_CAT_ID   = 68202
ELEMENT_SET_NO = 999
REV_AT_EPOCH   = 71
BSTAR          = .36643E-3
MEAN_MOTION_DOT = .5946E-4
MEAN_MOTION_DDOT = 0

CCSDS_OMM_VERS = 2.0
CREATION_DATE  = 
ORIGINATOR     = 

OBJECT_NAME    = 2026-052F
OBJECT_ID      = 2026-052F
CENTER_NAME    = EARTH
REF_FRAME      = TEME
TIME_SYSTEM    = UTC
MEAN_ELEMENT_THEORY = SGP/SGP4

EPOCH          = 2026-03-20T20:30:58.234752
MEAN_MOTION    = 15.10547128
ECCENTRICITY   = .0009496
INCLINATION    = 97.5372
RA_OF_ASC_NODE = 156.0396
ARG_OF_PERICENTER = 244.5962
MEAN_ANOMALY   = 115.4285

EPHEMERIS_TYPE = 0
CLASSIFICATION_TYPE = U
NORAD_CAT_ID   = 68203
ELEMENT_SET_NO = 999
REV_AT_EPOCH   = 71
BSTAR          = .35997E-3
MEAN_MOTION_DOT = .588E-4
MEAN_MOTION_DDOT = 0

CCSDS_OMM_VERS = 2.0
CREATION_DATE  = 
ORIGINATOR     = 

OBJECT_NAME    = 2026-052G
OBJECT_ID      = 2026-052G
CENTER_NAME    = EARTH
REF_FRAME      = TEME
TIME_SYSTEM    = UTC
MEAN_ELEMENT_THEORY = SGP/SGP4

EPOCH          = 2026-03-20T20:30:44.777088
MEAN_MOTION    = 15.10598150
ECCENTRICITY   = .0009127
INCLINATION    = 97.5375
RA_OF_ASC_NODE = 156.0342
ARG_OF_PERICENTER = 247.2956
MEAN_ANOMALY   = 112.7309

EPHEMERIS_TYPE = 0
CLASSIFICATION_TYPE = U
NORAD_CAT_ID   = 68204
ELEMENT_SET_NO = 999
REV_AT_EPOCH   = 71
BSTAR          = .36917E-3
MEAN_MOTION_DOT = .604E-4
MEAN_MOTION_DDOT = 0

CCSDS_OMM_VERS = 2.0
CREATION_DATE  = 
ORIGINATOR     = 

OBJECT_NAME    = KZ-11 R/B
OBJECT_ID      = 2026-052H
CENTER_NAME    = EARTH
REF_FRAME      = TEME
TIME_SYSTEM    = UTC
MEAN_ELEMENT_THEORY = SGP/SGP4

EPOCH          = 2026-03-20T20:33:11.499840
MEAN_MOTION    = 14.66701384
ECCENTRICITY   = .0548909
INCLINATION    = 97.3426
RA_OF_ASC_NODE = 155.9719
ARG_OF_PERICENTER = 357.8733
MEAN_ANOMALY   = 2.0142

EPHEMERIS_TYPE = 0
CLASSIFICATION_TYPE = U
NORAD_CAT_ID   = 68205
ELEMENT_SET_NO = 999
REV_AT_EPOCH   = 69
BSTAR          = .51262E-3
MEAN_MOTION_DOT = .34521E-3
MEAN_MOTION_DDOT = .18645E-5

CCSDS_OMM_VERS = 2.0
CREATION_DATE  = 
ORIGINATOR     = 

OBJECT_NAME    = 2026-052J
OBJECT_ID      = 2026-052J
CENTER_NAME    = EARTH
REF_FRAME      = TEME
TIME_SYSTEM    = UTC
MEAN_ELEMENT_THEORY = SGP/SGP4

EPOCH          = 2026-03-20T15:38:04.562880
MEAN_MOTION    = 14.66950301
ECCENTRICITY   = .05484
INCLINATION    = 97.3431
RA_OF_ASC_NODE = 155.7875
ARG_OF_PERICENTER = 358.6153
MEAN_ANOMALY   = 1.3505

EPHEMERIS_TYPE = 0
CLASSIFICATION_TYPE = U
NORAD_CAT_ID   = 68206
ELEMENT_SET_NO = 999
REV_AT_EPOCH   = 66
BSTAR          = .9469E-3
MEAN_MOTION_DOT = .6469E-3
MEAN_MOTION_DDOT = .23226E-5

CCSDS_OMM_VERS = 2.0
CREATION_DATE  = 
ORIGINATOR     = 

OBJECT_NAME    = TEN-KOH 2
OBJECT_ID      = 2025-241B
CENTER_NAME    = EARTH
REF_FRAME      = TEME
TIME_SYSTEM    = UTC
MEAN_ELEMENT_THEORY = SGP/SGP4

EPOCH          = 2026-03-20T20:14:15.638784
MEAN_MOTION    = 15.22576173
ECCENTRICITY   = .000445
INCLINATION    = 51.6355
RA_OF_ASC_NODE = 19.8249
ARG_OF_PERICENTER = 194.2165
MEAN_ANOMALY   = 165.8687

EPHEMERIS_TYPE = 0
CLASSIFICATION_TYPE = U
NORAD_CAT_ID   = 68261
ELEMENT_SET_NO = 999
REV_AT_EPOCH   = 144
BSTAR          = .36341E-3
MEAN_MOTION_DOT = .8234E-4
MEAN_MOTION_DDOT = 0

